[{"OBJECT_NAME":"CS1","OBJECT_ID":"2021-088B","EPOCH":"2026-03-09T18:02:30.253920","MEAN_MOTION":15.31848439,"ECCENTRICITY":0.00141292,"INCLINATION":97.3882,"RA_OF_ASC_NODE":132.1684,"ARG_OF_PERICENTER":78.0335,"MEAN_ANOMALY":282.249,"EPHEMERIS_TYPE":0,"CLASSIFICATION_TYPE":"U","NORAD_CAT_ID":49261,"ELEMENT_SET_NO":999,"REV_AT_EPOCH":24518,"BSTAR":0.00051175576,"MEAN_MOTION_DOT":0.00015722,"MEAN_MOTION_DDOT":0},{"OBJECT_NAME":"STARLINK-34692","OBJECT_ID":"2025-216AB","EPOCH":"2026-03-09T23:20:50.081568","MEAN_MOTION":15.30199979,"ECCENTRICITY":0.00011876,"INCLINATION":53.1605,"RA_OF_ASC_NODE":331.8024,"ARG_OF_PERICENTER":117.604,"MEAN_ANOMALY":242.5082,"EPHEMERIS_TYPE":0,"CLASSIFICATION_TYPE":"U","NORAD_CAT_ID":65759,"ELEMENT_SET_NO":999,"REV_AT_EPOCH":2654,"BSTAR":0.0005758514,"MEAN_MOTION_DOT":0.00016734,"MEAN_MOTION_DDOT":0}]
